{
  "norad_id": 58159,
  "name": "STARLINK-30788",
  "history": [
    {
      "epoch": "2026-03-28T13:06:25.561152Z",
      "apogee_km": 476.0250204314125,
      "perigee_km": 474.44463288818406,
      "latitude_deg": -2.1450101822291663e-05,
      "longitude_deg": 109.6434539474543,
      "height_km": 476.06085560529937,
      "semi_major_axis_km": 6853.371826659798,
      "eccentricity": 0.0001153,
      "inclination_deg": 53.1597,
      "raan_deg": 132.215,
      "arg_perigee_deg": 84.7589,
      "mean_anomaly_deg": 275.3543,
      "mean_motion_rev_day": 15.30193383
    }
  ]
}